[
    {
        "name":         "Food Truck 1",
        "addressLine1": "1 Food Truck lane",
        "city":         "Food Truck1 city",
        "state":        "Food Truck1 state",
        "zipCode":      "Food Truck1 zipCode",
        "cuisine":      "Food Truck 1 American"
        
    },
    {
        "name":         "Food Truck 2",
        "addressLine1": "2 Food Truck lane",
        "city":         "Food Truck2 city",
        "state":        "Food Truck2 state",
        "zipCode":      "Food Truck2 zipCode",
        "cuisine":      "Food Truck 1 Japanese"
    },
    {
        "name":         "Food Truck 3",
        "addressLine1": "3 Food Truck lane",
        "city":         "Food Truck3 city",
        "state":        "Food Truck3 state",
        "zipCode":      "Food Truck3 zipCode",
        "cuisine":      "Food Truck 1 Vietnamese"
    },
    {
        "name":         "Food Truck 4",
        "addressLine1": "4 Food Truck lane",
        "city":         "Food Truck4 city",
        "state":        "Food Truck4 state",
        "zipCode":      "Food Truck4 zipCode",
        "cuisine":      "Food Truck 1 Thai"
    },
    {
        "name":         "Food Truck 5",
        "addressLine1": "5 Food Truck lane",
        "city":         "Food Truck5 city",
        "state":        "Food Truck5 state",
        "zipCode":      "Food Truck5 zipCode",
        "cuisine":      "Food Truck 1 Indian"
    },
    {
        "name":         "Food Truck 6",
        "addressLine1": "6 Food Truck lane",
        "city":         "Food Truck6 city",
        "state":        "Food Truck6 state",
        "zipCode":      "Food Truck6 zipCode",
        "cuisine":      "Food Truck 1 Hawaiian"
    },
    {
        "name":         "Food Truck 7",
        "addressLine1": "7 Food Truck lane",
        "city":         "Food Truck7 city",
        "state":        "Food Truck7 state",
        "zipCode":      "Food Truck7 zipCode",
        "cuisine":      "Food Truck 1 Italian"
    },
    {
        "name":         "Food Truck 8",
        "addressLine1": "8 Food Truck lane",
        "city":         "Food Truck8 city",
        "state":        "Food Truck8 state",
        "zipCode":      "Food Truck8 zipCode",
        "cuisine":      "Food Truck 1 Korean"
    },
    {
        "name":         "Food Truck 9",
        "addressLine1": "9 Food Truck lane",
        "city":         "Food Truck9 city",
        "state":        "Food Truck9 state",
        "zipCode":      "Food Truck9 zipCode",
        "cuisine":      "Food Truck 1 Greek"
    },
    {
        "name":         "Food Truck 10",
        "addressLine1": "10 Food Truck lane",
        "city":         "Food Truck10 city",
        "state":        "Food Truck10 state",
        "zipCode":      "Food Truck10 zipCode",
        "cuisine":      "Food Truck 1 Taiwanese"
    }
]